{"fetched_at":"2026-03-30T06:02:59Z","count":15439,"tles":[{"name":"KUIPER-00136","line1":"1 65962U 25228R   26087.75230560  .00004060  00000+0  56125-3 0  9999","line2":"2 65962  51.8996 263.8522 0000767 137.5907 222.5115 14.79932111 26226","category":"Other"}]}